#dP2023 10 29  0  0  0.00000000      96 __u+U IGS20 EXT  IAC
## 2286      0.00000000   900.00000000 60246 0.0000000000000
+  119   C06C07C08C09C10C11C12C13C14C16C19C20C21C22C23C24C25
+        C26C27C28C29C30C32C33C34C35C36C37C38C39C40C41C42C43
+        C44C45C46E02E03E04E05E07E08E09E10E11E12E13E14E15E19
+        E21E24E25E26E27E30E31E33E34E36G01G02G03G04G05G06G07
+        G08G09G10G11G12G13G14G15G16G17G18G19G20G21G22G23G24
+        G25G26G27G28G29G30G31G32J02J03J04R01R02R03R04R05R07
+        R08R09R11R12R13R14R15R16R17R18R19R20R21R22R24R25R26
++        10 10  9 10 11  9 10  9  9 10  8 10  8  8  7  8  8
++         8  8  8  8  9  9  8  8  9  8  7 10 10  9  8  9  8
++         7  9  9  8  7  7  8  8  8  8  8 10 10 12  0  8  7
++         8  8  8  9  8  8  8  9 11  8  8  7  8  7  8  8  8
++         7  8  7  7  9  8  7  7  7  8  7  8  8  7  8  8  8
++         7  7  8  7  8  7  7  8  9 10  9  9  8  8  8  8  8
++         7  8  8  9  9  8  8  9  8  8  9  8  7  8  8  9  9
%c M  cc GPS ccc cccc cccc cccc cccc ccccc ccccc ccccc ccccc
%c cc cc ccc ccc cccc cccc cccc cccc ccccc ccccc ccccc ccccc
%f  0.0000000  0.000000000  0.00000000000  0.000000000000000
%f  0.0000000  0.000000000  0.00000000000  0.000000000000000
%i    0    0    0    0      0      0      0      0         0
%i    0    0    0    0      0      0      0      0         0
/* IAC                                ULTRA-RAPID PREDICTION
/* S/V CLOCKS ARE ALIGNED TO GNSS TIME                      
/* G:C1WC2W R:C1PC2P E:C1XC5X C:C2IC6I J:C1CC2S             
/* PCV:IGS20_2280 OL/AL:FES2004  NONE     YN ORB:CoN CLK:CoN
*  2023 10 29 17  0  0.00000000
PC06   -727.555958  33765.945536 -25019.586040     75.807934
PC07 -14911.299374  27249.340128  28530.845978   -235.056330
PC08 -15916.112891  38757.032225  -5709.581536    270.305150
PC09   5316.349371  37124.173168 -18258.595080    -20.928231
PC10  -4893.492119  28039.534660  31355.594488      1.858294
PC11 -21843.581974  -6307.114723  16240.575280    228.940690
PC12 -19785.443210 -19648.968890   -843.776232    878.700455
PC13 -10936.047032  39305.100494 -11085.043424    374.941402
PC14 -26785.303284   3757.378278   6767.603963    680.667100
PC16  -4199.796596  30795.723996 -28103.000865   -149.401135
PC19  25898.444227 -10102.824354   2552.748633   -973.922979
PC20  24302.195308   1921.417765 -13601.440148    162.376591
PC21  -7742.031335 -13883.024869  22939.873154   -969.070765
PC22  12728.189899 -16967.600001  18131.875588   -246.530237
PC23  -9502.825194  25709.658870  -5263.609091   -833.020166
PC24 -14219.933167  -9489.298990 -22066.436537    543.525981
PC25 -16251.932172  12649.009629 -18852.921294    243.747674
PC26  -4552.141588 -24426.842776 -12683.407731   -198.663967
PC27  14472.163980  22071.214490   9041.534041    220.501768
PC28   -990.806555  18762.611548  20644.153058    166.145294
PC29  18190.171119  -3652.367102 -20846.837662    194.285917
PC30  23402.190784  13267.516449  -7393.179264     -7.354990
PC32   7742.436758  13872.247116 -22937.010009   -531.864977
PC33 -25859.476264  10192.922729  -2424.894289   -949.078031
PC34 -23545.282481 -12209.742074   8696.098294    291.807192
PC35    194.662627 -18913.495008 -20535.701462    514.599969
PC36  16670.166561 -11336.517347  19311.058206   -157.748501
PC37   3466.256700  24943.735552  12063.149907   -868.672844
PC38 -19385.220957  37455.299410   2772.051136    114.306576
PC39  -6806.590317  27665.731427 -30969.658930     -5.436281
PC40 -20964.429660  20600.969120  30155.012384    -41.956041
PC41 -13407.499813  16947.941770 -17609.536448   -871.733085
PC42 -23466.388239  -3032.020415  14813.525594   -510.636603
PC43 -18825.405576   2873.806535  20398.331245     46.042182
PC44 -15117.129214 -21598.325717  -9198.563169    276.622684
PC45   9190.348668 -25901.250547   4750.892494    -40.970761
PC46  14498.550201   8278.740305  22360.969059    -95.630847
PE02 -23802.815045  15646.088504  -8087.295144     74.023954
PE03 -24054.859034   5436.020701 -16374.760206    -69.275537
PE04   5684.602952 -16055.844110  24207.514747   -245.407224
PE05 -28400.746820  -8293.556245    920.641476     32.218150
PE07  15744.705734  17362.604498 -18083.962538    -84.961651
PE08  -6229.992386  15748.024773 -24283.421955   -168.883163
PE09 -15642.983617 -17266.868659  18245.325532   -208.817387
PE10  -4411.524607 -28825.097709  -5039.063346   -574.852070
PE11 -10850.540730 -26984.294721   5506.988870   3150.768233
PE12   2182.002517 -26171.558174 -13660.446130   -755.820718
PE13  10478.312781  27264.781273  -4801.909658    -19.616141
PE14      0.000000      0.000000      0.000000    382.626078
PE15  -2439.491380  25918.370000  14100.186680    -65.169464
PE19  25513.185838  -3516.875119  14585.087345  -1324.046742
PE21  20200.955949    913.842589  21617.281393   -561.315752
PE24  -4227.192948 -18146.743826 -23005.612236   -402.535507
PE25 -20008.489134  -1254.906454 -21772.866111     -3.771471
PE26  17253.675632  11912.327974 -20891.257907    265.511165
PE27   4720.551749  17784.709514  23193.354479   -186.713843
PE30 -13719.759258  23932.103360  10747.991827   -619.286535
PE31  13359.069377 -23971.333871 -11077.462006     -8.917750
PE33  13986.211257  -8744.631810 -24570.229772      1.262200
PE34 -13717.017801   9468.829670  24462.758737    -75.054265
PE36 -17076.501952 -12636.935228  20617.993472   -136.693768
PG01 -14580.752259    634.621045  21870.402366    163.324192
PG02 -16769.250401  -5304.215157  20464.866722   -535.847527
PG03 -21423.632716   9611.686358  12159.248402    -48.659233
PG04 -24104.233881    629.321123 -11270.865253    198.210584
PG05  16536.644185   3140.981265 -20750.192401   -148.367148
PG06   5740.522174  25866.023654    932.404271    519.267941
PG07  -7684.796578  18398.927856 -16831.354445     27.392320
PG08 -26223.481125  -5127.523529   1797.774950   -149.559701
PG09 -17040.427846   9058.727234 -18362.331852    -18.428673
PG10   6577.451738 -20741.781290  15183.018396    -59.291074
PG11  12068.581792  20990.169391 -10959.361115   -437.036913
PG12  21801.770646  -6399.794674  13420.328289   -441.247529
PG13  22156.318307  13828.227451  -5623.773855    589.478601
PG14 -10127.752059  21280.354302  12099.698017    228.141176
PG15  26499.489783   1726.653873   2131.565109     91.911147
PG16 -12469.559779  -9378.357939 -21849.134300   -431.116309
PG17  -1859.227744  15293.656600  22062.470571    723.616369
PG18   6545.281445 -19908.279848 -16195.518596   -463.609773
PG19   8145.012779  16965.774310  18684.398046    391.655406
PG20   8192.455844  14174.181350 -20902.071775    404.326077
PG21 -17241.712456  -9574.202880  18715.890523    145.611606
PG22  -4545.485086  19720.137296  17798.879410     93.737231
PG23  16220.892679 -20568.095053   3756.739109     90.299424
PG24  16952.013187   3939.406455  19776.823698   -358.429955
PG25  19802.834803 -17192.691848   2826.594388    475.011426
PG26  -4811.859690 -16915.112991 -19938.224835    220.168599
PG27 -20995.617404 -13154.514075 -10378.839578    -62.391240
PG28  -5492.122370 -25819.247897   2926.595682    -34.949578
PG29  17812.214873  -6947.586437 -18524.584220   -610.216679
PG30   -663.031353  24757.095081  -9109.090993   -473.733009
PG31 -10225.358337 -23447.132276  -6480.463472   -225.187617
PG32  -3571.826736 -16163.767527  20993.078347   -579.172379
PJ02 -28873.567538  30783.718368   7093.486153     -6.599404
PJ03 -25630.115360  23682.352598  28792.222821     -6.521798
PJ04 -33537.819852  22299.760286  -7387.049362     71.696241
PR01  -3714.653683  11439.776713 -22499.267793     68.676904
PR02  14995.990810   7294.249943 -19236.278438    -22.364847
PR03  24998.878626   -917.612191  -4770.626692     88.013763
PR04  21025.683311  -8096.370862  11961.654936    208.880826
PR05   5723.332418 -11069.529584  22255.885357    121.397676
PR07 -25192.256527   1264.296514   4028.785426     67.941749
PR08 -20914.235055   8322.238287 -11986.167731    -73.116433
PR09  -4902.512432 -14954.235992 -20082.459465    150.320072
PR11 -13514.776176  17569.452945 -12598.634628   -209.529033
PR12  -6480.575109  23835.472919   6425.303549     32.876007
PR13   3234.023119  16615.202352  19070.312103    -40.707641
PR14  12545.695358  -2454.589464  22088.413485     25.495572
PR15  13520.112318 -18400.159054  11395.389270     85.027993
PR16   6563.474927 -23900.904950  -6090.700964     20.134018
PR17  16609.337838   9172.386760 -17060.604079     30.126116
PR18   8578.851513  -6006.395950 -23237.723702    109.307549
PR19  -2036.183588 -17449.686456 -18482.754405   -252.674504
PR20 -14547.668682 -20972.952562    273.505491   -102.607663
PR21 -16266.527777  -8597.357610  17656.656959    -49.301178
PR22  -8500.795606   6858.191328  23081.526691     90.999584
PR24  15539.674679  20227.488008   -811.405069    -30.105911
PR25 -16361.744014  -9677.371627  17004.844821     -6.444619
PR26 -21151.593500   8291.308885 -11566.037548    -18.856783
EOF
